{
  "norad_id": 63929,
  "name": "STARLINK-33989",
  "history": [
    {
      "epoch": "2026-03-28T19:10:24.802752Z",
      "apogee_km": 574.1944542203646,
      "perigee_km": 569.8952107424284,
      "latitude_deg": 3.228131916864e-05,
      "longitude_deg": 112.50400101974361,
      "height_km": 574.4324219077357,
      "semi_major_axis_km": 6950.181832481397,
      "eccentricity": 0.00030929,
      "inclination_deg": 70.0012,
      "raan_deg": 226.3215,
      "arg_perigee_deg": 271.0672,
      "mean_anomaly_deg": 89.0133,
      "mean_motion_rev_day": 14.98333576
    }
  ]
}